STARLINK-36904          
1 67977U 26038S   26076.91670139 -.02269594  00000+0 -21128-1 0  9995
2 67977  97.2855  87.6649 0001678  70.8648 320.6229 15.70813446  4523
STARLINK-36364          
1 67978U 26038T   26076.96926604  .00149847  00000+0  98519-3 0  9996
2 67978  97.2870  87.7296 0001818 120.1583 239.9862 15.75254824  4498
STARLINK-36359          
1 67979U 26038U   26076.97537056 -.00954144  00000+0 -78584-2 0  9992
2 67979  97.2864  87.7221 0000933 352.3392   7.7857 15.73007716  4493
STARLINK-36882          
1 67980U 26038V   26076.91670139 -.02273044  00000+0 -21815-1 0  9997
2 67980  97.2855  87.6702 0001700  67.2502 337.8092 15.70093041  4521
STARLINK-36874          
1 67981U 26038W   26076.96820810  .00163052  00000+0  10699-2 0  9998
2 67981  97.2869  87.7307 0001470 100.3416 259.8015 15.75263677  4499
STARLINK-36879          
1 67982U 26038X   26076.91670139 -.02208800  00000+0 -36514-1 0  9999
2 67982  97.2844  87.6323 0001808  84.7432 215.5866 15.55572121  4520
STARLINK-36867          
1 67983U 26038Y   26076.91670139 -.02227093  00000+0 -32750-1 0  9993
2 67983  97.2839  87.6535 0001325  92.9550 263.5283 15.58725845  4528
STARLINK-36266          
1 67984U 26038Z   26076.96538882  .00066023  00000+0  43962-3 0  9996
2 67984  97.2875  87.7339 0001544 106.6434 253.5001 15.75215072  4497
STARLINK-36802          
1 67985U 26038AA  26076.96291813  .00083677  00000+0  55558-3 0  9995
2 67985  97.2879  87.7345 0001661  97.4514 262.6940 15.75223709  4494
STARLINK-36535          
1 67986U 26039A   26076.91670139 -.01972464  00000+0 -19851-1 0  9992
2 67986  42.9996   4.7423 0001383 264.4717 164.3149 15.67690786  4202
STARLINK-36744          
1 67987U 26039B   26076.91670139 -.01972872  00000+0 -18680-1 0  9995
2 67987  42.9996   4.6880 0001350 268.0074 182.2696 15.69158750  4207
STARLINK-36734          
1 67988U 26039C   26076.91670139 -.00570316  00000+0 -10314-1 0  9998
2 67988  42.9996   5.5056 0001809 244.2212 236.3227 15.50923110  4203
