CCSDS_OMM_VERS = 2.0
CREATION_DATE  = 
ORIGINATOR     = 

OBJECT_NAME    = STARLINK-36904
OBJECT_ID      = 2026-038S
CENTER_NAME    = EARTH
REF_FRAME      = TEME
TIME_SYSTEM    = UTC
MEAN_ELEMENT_THEORY = SGP/SGP4

EPOCH          = 2026-03-17T22:00:03.000096
MEAN_MOTION    = 15.70813446
ECCENTRICITY   = .00016786
INCLINATION    = 97.2855
RA_OF_ASC_NODE = 87.6649
ARG_OF_PERICENTER = 70.8648
MEAN_ANOMALY   = 320.6229

EPHEMERIS_TYPE = 0
CLASSIFICATION_TYPE = U
NORAD_CAT_ID   = 67977
ELEMENT_SET_NO = 999
REV_AT_EPOCH   = 452
BSTAR          = -.2112751E-1
MEAN_MOTION_DOT = -.2269594E-1
MEAN_MOTION_DDOT = 0

CCSDS_OMM_VERS = 2.0
CREATION_DATE  = 
ORIGINATOR     = 

OBJECT_NAME    = STARLINK-36364
OBJECT_ID      = 2026-038T
CENTER_NAME    = EARTH
REF_FRAME      = TEME
TIME_SYSTEM    = UTC
MEAN_ELEMENT_THEORY = SGP/SGP4

EPOCH          = 2026-03-17T23:15:44.585856
MEAN_MOTION    = 15.75254824
ECCENTRICITY   = .00018181
INCLINATION    = 97.2870
RA_OF_ASC_NODE = 87.7296
ARG_OF_PERICENTER = 120.1583
MEAN_ANOMALY   = 239.9862

EPHEMERIS_TYPE = 0
CLASSIFICATION_TYPE = U
NORAD_CAT_ID   = 67978
ELEMENT_SET_NO = 999
REV_AT_EPOCH   = 449
BSTAR          = .9851941E-3
MEAN_MOTION_DOT = .149847E-2
MEAN_MOTION_DDOT = 0

CCSDS_OMM_VERS = 2.0
CREATION_DATE  = 
ORIGINATOR     = 

OBJECT_NAME    = STARLINK-36359
OBJECT_ID      = 2026-038U
CENTER_NAME    = EARTH
REF_FRAME      = TEME
TIME_SYSTEM    = UTC
MEAN_ELEMENT_THEORY = SGP/SGP4

EPOCH          = 2026-03-17T23:24:32.016384
MEAN_MOTION    = 15.73007716
ECCENTRICITY   = .00009332
INCLINATION    = 97.2864
RA_OF_ASC_NODE = 87.7221
ARG_OF_PERICENTER = 352.3392
MEAN_ANOMALY   = 7.7857

EPHEMERIS_TYPE = 0
CLASSIFICATION_TYPE = U
NORAD_CAT_ID   = 67979
ELEMENT_SET_NO = 999
REV_AT_EPOCH   = 449
BSTAR          = -.785844E-2
MEAN_MOTION_DOT = -.954144E-2
MEAN_MOTION_DDOT = 0

CCSDS_OMM_VERS = 2.0
CREATION_DATE  = 
ORIGINATOR     = 

OBJECT_NAME    = STARLINK-36882
OBJECT_ID      = 2026-038V
CENTER_NAME    = EARTH
REF_FRAME      = TEME
TIME_SYSTEM    = UTC
MEAN_ELEMENT_THEORY = SGP/SGP4

EPOCH          = 2026-03-17T22:00:03.000096
MEAN_MOTION    = 15.70093041
ECCENTRICITY   = .00017006
INCLINATION    = 97.2855
RA_OF_ASC_NODE = 87.6702
ARG_OF_PERICENTER = 67.2502
MEAN_ANOMALY   = 337.8092

EPHEMERIS_TYPE = 0
CLASSIFICATION_TYPE = U
NORAD_CAT_ID   = 67980
ELEMENT_SET_NO = 999
REV_AT_EPOCH   = 452
BSTAR          = -.21814859E-1
MEAN_MOTION_DOT = -.2273044E-1
MEAN_MOTION_DDOT = 0

CCSDS_OMM_VERS = 2.0
CREATION_DATE  = 
ORIGINATOR     = 

OBJECT_NAME    = STARLINK-36874
OBJECT_ID      = 2026-038W
CENTER_NAME    = EARTH
REF_FRAME      = TEME
TIME_SYSTEM    = UTC
MEAN_ELEMENT_THEORY = SGP/SGP4

EPOCH          = 2026-03-17T23:14:13.179840
MEAN_MOTION    = 15.75263677
ECCENTRICITY   = .00014709
INCLINATION    = 97.2869
RA_OF_ASC_NODE = 87.7307
ARG_OF_PERICENTER = 100.3416
MEAN_ANOMALY   = 259.8015

EPHEMERIS_TYPE = 0
CLASSIFICATION_TYPE = U
NORAD_CAT_ID   = 67981
ELEMENT_SET_NO = 999
REV_AT_EPOCH   = 449
BSTAR          = .1069884E-2
MEAN_MOTION_DOT = .163052E-2
MEAN_MOTION_DDOT = 0

CCSDS_OMM_VERS = 2.0
CREATION_DATE  = 
ORIGINATOR     = 

OBJECT_NAME    = STARLINK-36879
OBJECT_ID      = 2026-038X
CENTER_NAME    = EARTH
REF_FRAME      = TEME
TIME_SYSTEM    = UTC
MEAN_ELEMENT_THEORY = SGP/SGP4

EPOCH          = 2026-03-17T22:00:03.000096
MEAN_MOTION    = 15.55572121
ECCENTRICITY   = .00018085
INCLINATION    = 97.2844
RA_OF_ASC_NODE = 87.6323
ARG_OF_PERICENTER = 84.7432
MEAN_ANOMALY   = 215.5866

EPHEMERIS_TYPE = 0
CLASSIFICATION_TYPE = U
NORAD_CAT_ID   = 67982
ELEMENT_SET_NO = 999
REV_AT_EPOCH   = 452
BSTAR          = -.36513761E-1
MEAN_MOTION_DOT = -.22088E-1
MEAN_MOTION_DDOT = 0

CCSDS_OMM_VERS = 2.0
CREATION_DATE  = 
ORIGINATOR     = 

OBJECT_NAME    = STARLINK-36867
OBJECT_ID      = 2026-038Y
CENTER_NAME    = EARTH
REF_FRAME      = TEME
TIME_SYSTEM    = UTC
MEAN_ELEMENT_THEORY = SGP/SGP4

EPOCH          = 2026-03-17T22:00:03.000096
MEAN_MOTION    = 15.58725845
ECCENTRICITY   = .00013252
INCLINATION    = 97.2839
RA_OF_ASC_NODE = 87.6535
ARG_OF_PERICENTER = 92.9550
MEAN_ANOMALY   = 263.5283

EPHEMERIS_TYPE = 0
CLASSIFICATION_TYPE = U
NORAD_CAT_ID   = 67983
ELEMENT_SET_NO = 999
REV_AT_EPOCH   = 452
BSTAR          = -.3275045E-1
MEAN_MOTION_DOT = -.2227093E-1
MEAN_MOTION_DDOT = 0

CCSDS_OMM_VERS = 2.0
CREATION_DATE  = 
ORIGINATOR     = 

OBJECT_NAME    = STARLINK-36266
OBJECT_ID      = 2026-038Z
CENTER_NAME    = EARTH
REF_FRAME      = TEME
TIME_SYSTEM    = UTC
MEAN_ELEMENT_THEORY = SGP/SGP4

EPOCH          = 2026-03-17T23:10:09.594048
MEAN_MOTION    = 15.75215072
ECCENTRICITY   = .00015447
INCLINATION    = 97.2875
RA_OF_ASC_NODE = 87.7339
ARG_OF_PERICENTER = 106.6434
MEAN_ANOMALY   = 253.5001

EPHEMERIS_TYPE = 0
CLASSIFICATION_TYPE = U
NORAD_CAT_ID   = 67984
ELEMENT_SET_NO = 999
REV_AT_EPOCH   = 449
BSTAR          = .4396196E-3
MEAN_MOTION_DOT = .66023E-3
MEAN_MOTION_DDOT = 0

CCSDS_OMM_VERS = 2.0
CREATION_DATE  = 
ORIGINATOR     = 

OBJECT_NAME    = STARLINK-36802
OBJECT_ID      = 2026-038AA
CENTER_NAME    = EARTH
REF_FRAME      = TEME
TIME_SYSTEM    = UTC
MEAN_ELEMENT_THEORY = SGP/SGP4

EPOCH          = 2026-03-17T23:06:36.126432
MEAN_MOTION    = 15.75223709
ECCENTRICITY   = .00016616
INCLINATION    = 97.2879
RA_OF_ASC_NODE = 87.7345
ARG_OF_PERICENTER = 97.4514
MEAN_ANOMALY   = 262.6940

EPHEMERIS_TYPE = 0
CLASSIFICATION_TYPE = U
NORAD_CAT_ID   = 67985
ELEMENT_SET_NO = 999
REV_AT_EPOCH   = 449
BSTAR          = .55557502E-3
MEAN_MOTION_DOT = .83677E-3
MEAN_MOTION_DDOT = 0

CCSDS_OMM_VERS = 2.0
CREATION_DATE  = 
ORIGINATOR     = 

OBJECT_NAME    = STARLINK-36535
OBJECT_ID      = 2026-039A
CENTER_NAME    = EARTH
REF_FRAME      = TEME
TIME_SYSTEM    = UTC
MEAN_ELEMENT_THEORY = SGP/SGP4

EPOCH          = 2026-03-17T22:00:03.000096
MEAN_MOTION    = 15.67690786
ECCENTRICITY   = .00013833
INCLINATION    = 42.9996
RA_OF_ASC_NODE = 4.7423
ARG_OF_PERICENTER = 264.4717
MEAN_ANOMALY   = 164.3149

EPHEMERIS_TYPE = 0
CLASSIFICATION_TYPE = U
NORAD_CAT_ID   = 67986
ELEMENT_SET_NO = 999
REV_AT_EPOCH   = 420
BSTAR          = -.19850638E-1
MEAN_MOTION_DOT = -.1972464E-1
MEAN_MOTION_DDOT = 0

CCSDS_OMM_VERS = 2.0
CREATION_DATE  = 
ORIGINATOR     = 

OBJECT_NAME    = STARLINK-36744
OBJECT_ID      = 2026-039B
CENTER_NAME    = EARTH
REF_FRAME      = TEME
TIME_SYSTEM    = UTC
MEAN_ELEMENT_THEORY = SGP/SGP4

EPOCH          = 2026-03-17T22:00:03.000096
MEAN_MOTION    = 15.69158750
ECCENTRICITY   = .00013505
INCLINATION    = 42.9996
RA_OF_ASC_NODE = 4.6880
ARG_OF_PERICENTER = 268.0074
MEAN_ANOMALY   = 182.2696

EPHEMERIS_TYPE = 0
CLASSIFICATION_TYPE = U
NORAD_CAT_ID   = 67987
ELEMENT_SET_NO = 999
REV_AT_EPOCH   = 420
BSTAR          = -.18679961E-1
MEAN_MOTION_DOT = -.1972872E-1
MEAN_MOTION_DDOT = 0

CCSDS_OMM_VERS = 2.0
CREATION_DATE  = 
ORIGINATOR     = 

OBJECT_NAME    = STARLINK-36734
OBJECT_ID      = 2026-039C
CENTER_NAME    = EARTH
REF_FRAME      = TEME
TIME_SYSTEM    = UTC
MEAN_ELEMENT_THEORY = SGP/SGP4

EPOCH          = 2026-03-17T22:00:03.000096
MEAN_MOTION    = 15.50923110
ECCENTRICITY   = .00018095
INCLINATION    = 42.9996
RA_OF_ASC_NODE = 5.5056
ARG_OF_PERICENTER = 244.2212
MEAN_ANOMALY   = 236.3227

EPHEMERIS_TYPE = 0
CLASSIFICATION_TYPE = U
NORAD_CAT_ID   = 67988
ELEMENT_SET_NO = 999
REV_AT_EPOCH   = 420
BSTAR          = -.10313987E-1
MEAN_MOTION_DOT = -.570316E-2
MEAN_MOTION_DDOT = 0

